UBAKUSAT                
1 43467U 98067NQ  19292.86286203  .00016734  00000-0  16873-3 0  9991
2 43467  51.6363  75.1432 0001956 183.6944 176.4037 15.65513829 82157
BATSU-CS1 (IRAZU)       
1 43468U 98067NR  19292.84995671  .00054747  00000-0  34050-3 0  9999
2 43468  51.6368  60.7111 0001914 299.1736  60.9073 15.76410397182328
CUBERRT                 
1 43546U 98067NU  19291.52617622  .00009334  00000-0  90994-4 0  9999
2 43546  51.6370  81.2167 0003733 233.2765 126.7888 15.67029625 72085
TEMPEST-D               
1 43547U 98067NV  19292.84131071  .00004653  00000-0  64659-4 0  9993
2 43547  51.6378  88.5233 0005185 220.5034 139.5573 15.59161313 71780
RAINCUBE                
1 43548U 98067NW  19292.83673310  .00016755  00000-0  17802-3 0  9993
2 43548  51.6359  80.9523 0005082 239.3765 120.6729 15.64174592 72338
HALOSAT                 
1 43549U 98067NX  19291.56949440  .00013351  00000-0  14409-3 0  9992
2 43549  51.6367  87.5138 0004771 236.7160 123.3378 15.63991122 71690
ENDUROSAT ONE           
1 43551U 98067NZ  19292.85239461  .00020384  00000-0  19770-3 0  9993
2 43551  51.6364  77.3246 0005333 253.9683 106.0726 15.66323072 72358
EQUISAT                 
1 43552U 98067PA  19292.82342246  .00016640  00000-0  17530-3 0  9999
2 43552  51.6380  80.1730 0005627 249.5587 110.4804 15.64393798 72274
AEROCUBE 12A            
1 43556U 18046C   19292.14871627  .00000706  00000-0  37257-4 0  9992
2 43556  51.6419 189.1228 0008761 144.1387 216.0183 15.29012570 70293
AEROCUBE 12B            
1 43557U 18046D   19292.89282837  .00000579  00000-0  32962-4 0  9990
2 43557  51.6426 185.8348 0008673 146.7709 213.3817 15.28852822 70358
UITMSAT-1               
1 43589U 98067PD  19292.87055161  .00018979  00000-0  19545-3 0  9996
2 43589  51.6351  80.4015 0005063 258.3086 101.7341 15.64867062 68013
MAYA-1                  
1 43590U 98067PE  19290.82071749  .00017864  00000-0  18478-3 0  9997
2 43590  51.6348  90.7178 0005225 248.2260 111.8179 15.64803049 67629
BHUTAN-1                
1 43591U 98067PF  19291.44542594  .00017968  00000-0  18520-3 0  9991
2 43591  51.6368  87.4245 0005316 251.6567 108.3851 15.64887699 67721
SIRIUSSAT-1             
1 43595U 98067PG  19292.84297727  .00017971  00000-0  19236-3 0  9994
2 43595  51.6352  82.4753 0003264 217.2242 142.8527 15.63931690 67098
SIRIUSSAT-2             
1 43596U 98067PH  19292.88618570  .00018023  00000-0  19418-3 0  9993
2 43596  51.6363  82.8127 0003744 217.1977 142.8759 15.63761212 67095
TANUSHA-3               
1 43597U 98067PJ  19292.86167044  .00022963  00000-0  22279-3 0  9994
2 43597  51.6344  79.5622 0003404 238.1438 121.9226 15.66237971 67131
SURFSAT                 
1 43614U 18070B   19292.72138016  .00002704  00000-0  72327-4 0  9993
2 43614  93.0352  54.4866 0015514 181.5251 178.5959 15.38016804 61315
CP7 (DAVE)              
1 43615U 18070C   19293.12464720  .00002770  00000-0  74287-4 0  9993
2 43615  93.0357  54.6527 0015747 179.5839 180.5431 15.37922271 61371
ELFIN-B                 
1 43616U 18070D   19292.10023746  .00003732  00000-0  97401-4 0  9992
2 43616  93.0318  54.1349 0016177 187.2556 172.8466 15.38735298 61235
ELFIN-A                 
1 43617U 18070E   19292.93520042  .00004282  00000-0  11142-3 0  9993
2 43617  93.0371  54.7921 0015631 180.4332 179.6911 15.38827154 61365
CUBEBEL-1 (BSUSAT-1)    
1 43666U 18083E   19293.10104446  .00000810  00000-0  43375-4 0  9994
2 43666  97.5125 316.7045 0016458 116.7113 274.0460 15.17771000 54007
DEBRISSAT-2             
1 43680U 98067PR  19292.87763850  .00034119  00000-0  30366-3 0  9997
2 43680  51.6353  78.2138 0003467 257.2715 102.7894 15.68146982 75883
CICERO 10               
1 43690U 18088A   19292.09915869  .00000843  00000-0  37337-4 0  9999
2 43690  85.0392 237.9073 0017179 114.9349 245.3679 15.19818137 51947
IRVINE01                
1 43693U 18088D   19292.13725535  .00002407  00000-0  10376-3 0  9997
2 43693  85.0367 237.2252 0020752 100.7240 259.6340 15.21790004 51980
PROXIMA I               
1 43694U 18088E   19292.56440457  .00000948  00000-0  40021-4 0  9991
2 43694  85.0337 236.7392 0021843  92.3355 268.0388 15.21548104 52059
PROXIMA II              
1 43696U 18088G   19293.15506126  .00000968  00000-0  40896-4 0  9997
2 43696  85.0339 236.3506 0021877  90.3557 270.0191 15.21553820 52141
FACSAT-1                
1 43721U 18096C   19293.17559466  .00001086  00000-0  44240-4 0  9991
2 43721  97.4485   2.7834 0016313 252.7803 107.1650 15.26565146 49577
CENTAURI-2              
1 43722U 18096D   19292.80847404  .00001665  00000-0  65755-4 0  9990
2 43722  97.4490   2.5130 0016438 254.6874 105.2548 15.26856237 49511
INNOSAT-2               
1 43738U 18096V   19293.15146895  .00002324  00000-0  84375-4 0  9994
2 43738  97.4492   3.8980 0022580 264.4288  95.4377 15.29124304 49640
SIRION PATHFINDER-2     
1 43759U 18099B   19292.92671468  .00000040  00000-0  89195-5 0  9992
2 43759  97.7340   3.3325 0012902 269.1940  90.7802 14.95172738 47836
CORVUS-BC 4             
1 43767U 18099K   19293.17954075 -.00000236  00000-0 -16489-4 0  9991
2 43767  97.7327   3.2496 0010368 272.5606  87.4427 14.94616679 47864
MOVE-II                 
1 43780U 18099Y   19291.74398720  .00000821  00000-0  80001-4 0  9995
2 43780  97.7340   2.0684 0012104 285.7116  74.2769 14.95153712 47646
SPACEBEE-7              
1 43816U 18099BL  19293.13897850  .00000622  00000-0  61372-4 0  9997
2 43816  97.7351   3.6794 0012046 263.5327  96.4522 14.95489143 47429
SPACEBEE-5              
1 43817U 18099BM  19292.29956802  .00000868  00000-0  82884-4 0  9990
2 43817  97.7385   2.9963 0011775 267.0382  92.9492 14.95825488 47305
SPACEBEE-6              
1 43818U 18099BN  19292.99289875  .00000335  00000-0  35379-4 0  9993
2 43818  97.7359   3.5820 0012120 264.0075  95.9765 14.95594807 47558
SHIELDS 1               
1 43850U 18104B   19292.66473328  .00000041  00000-0  00000+0 0  9990
2 43850  85.0273 335.1836 0012777 234.8467 125.1590 15.21167410 46713
STF-1                   
1 43852U 18104D   19293.09994111  .00000041  00000-0  00000+0 0  9998
2 43852  85.0264 335.2430 0012773 253.8896 106.1543 15.20788083 46765
ZACUBE-2                
1 43907U 18111AH  19293.16142643  .00000567  00000-0  25986-4 0  9998
2 43907  97.2790 194.9368 0019942 276.4868  83.4099 15.24302908 45258
LUME 1                  
1 43908U 18111AJ  19292.81136423  .00000964  00000-0  41847-4 0  9994
2 43908  97.2790 194.6443 0019851 277.9944  81.9041 15.24536448 45203
AOBA VELOX-IV           
1 43940U 19003J   19293.11368774  .00001830  00000-0  77497-4 0  9994
2 43940  97.2640 347.3048 0024438   0.9821  29.2992 15.24150948 41883
CATSAT-2                
1 44029U 98067PV  19292.88054213  .00008978  00000-0  12159-3 0  9996
2 44029  51.6383  94.0587 0004425 245.3984 114.6548 15.58516587 40778
DELPHINI                
1 44030U 98067PW  19292.86137096  .00013738  00000-0  18068-3 0  9992
2 44030  51.6363  93.9021 0004420 242.9191 117.1351 15.58783862 40746
UNITE                   
1 44031U 98067PX  19292.86561632  .00008276  00000-0  11861-3 0  9995
2 44031  51.6386  95.4435 0003009 236.5236 123.5469 15.57106572 40724
TECHEDSAT 8             
1 44032U 98067PY  19293.01106751  .00039862  00000-0  39275-3 0  9995
2 44032  51.6362  87.3981 0003844 251.5777 108.4800 15.65543882 40829
CATSAT-1                
1 44033U 98067PZ  19291.59794397  .00007996  00000-0  10912-3 0  9996
2 44033  51.6381 100.4938 0004238 239.0216 121.0360 15.58493128 40480
RAAVANA-1               
1 44329U 98067QE  19292.84391897  .00007980  00000-0  13065-3 0  9996
2 44329  51.6402 101.3106 0007292 178.1720 181.9298 15.53467994 19393
UGUISU                  
1 44330U 98067QF  19292.84706899  .00007998  00000-0  13114-3 0  9994
2 44330  51.6397 101.3311 0007273 176.8641 183.2397 15.53423737 19372
NEPALISAT-1             
1 44331U 98067QG  19292.84113566  .00008223  00000-0  13423-3 0  9993
2 44331  51.6398 101.2923 0007359 179.5863 180.5135 15.53501888 19388
SPOOQY-1                
1 44332U 98067QH  19293.09579969  .00008552  00000-0  13920-3 0  9992
2 44332  51.6397  99.9912 0006082 181.8877 178.2092 15.53527796 19384
SPACEBEE-9              
1 44370U 19037F   19293.24386919  .00005314  00000-0  13787-3 0  9996
2 44370  45.0161  20.8910 0015208 211.8198 148.1797 15.40105715 17377
SPACEBEE-8              
1 44371U 19037G   19292.69096507  .00011662  00000-0  28225-3 0  9992
2 44371  45.0148  23.5298 0014804 211.7319 148.2678 15.41154896 17281
MOVE-IIB                
1 44398U 19038N   19292.80763795  .00000964  00000-0  59986-4 0  9997
2 44398  97.5028 252.7233 0024029 238.3289 121.5598 15.11771208 16064
SONATE                  
1 44400U 19038Q   19292.87321180  .00000365  00000-0  25142-4 0  9998
2 44400  97.5045 252.7993 0023985 235.9977 123.8975 15.11709581 16077
LUCKY-7                 
1 44406U 19038W   19293.12464267  .00000539  00000-0  35090-4 0  9993
2 44406  97.5044 253.0757 0023429 234.9710 124.9322 15.11910446 16107
BEESAT 9                
1 44412U 19038AC  19292.86305479  .00000718  00000-0  45588-4 0  9991
2 44412  97.5040 252.8086 0021455 242.0628 117.8430 15.11887110 15760
JAISAT-1                
1 44419U 19038F   19292.89446530  .00000726  00000-0  45465-4 0  9998
2 44419  97.5041 252.9214 0020304 241.6674 118.2509 15.12376431 16088
SWIATOWID               
1 44426U 98067QL  19293.19532407  .00012511  00000-0  20007-3 0  9997
2 44426  51.6427  99.9284 0005056 141.0947 208.1794 15.53539001 16910
KRAKSAT                 
1 44427U 98067QM  19292.70795299  .00005782  00000-0  99721-4 0  9996
2 44427  51.6410 102.6616 0004427 135.4126 224.7220 15.52613228 16888
VCC A                   
1 44428U 98067QN  19290.88739346  .00006845  00000-0  11512-3 0  9997
2 44428  51.6407 111.5043 0003792 146.6234 213.4995 15.52985952 16606
